#dP2022  9 28  0  0  0.00000000      97 __u+U IGS14 FIT  IAC
## 2229 259200.00000000   900.00000000 59850 0.0000000000000
+  118   C06C07C08C09C10C11C12C13C14C16C19C20C21C22C23C24C25
+        C26C27C28C29C30C32C33C34C35C36C37C38C39C40C41C42C43
+        C44C45C46E01E02E03E04E05E07E08E09E10E11E12E13E14E15
+        E18E19E21E24E25E26E27E30E31E33E34E36G01G02G03G04G05
+        G06G07G08G09G10G11G12G13G14G15G16G17G18G19G20G21G22
+        G23G24G25G26G27G28G29G30G31G32J02J03J04R01R02R03R04
+        R05R07R08R09R11R12R13R14R15R17R18R19R20R21R24R25  0
++         7  7  7  7  7  6  6  7  6  7  6  6  5  6  5  5  5
++         6  5  6  6  5  6  5  6  6  6  6  7  6  6  5  6  6
++         6  6  6  4  4  4  4  4  4  4  4  4  4  5  4  4  4
++         5  4  4  4  4  4  4  4  4  4  4  4  3  4  3  3  3
++         3  4  3  3  3  3  3  3  3  4  3  3  4  3  3  3  3
++         4  4  3  3  3  4  3  3  3  3  9  9 12  7  6  6  6
++         6  6  6  6  6  6  7  6  6  6  6  6  7  6  6  9  0
%c M  cc GPS ccc cccc cccc cccc cccc ccccc ccccc ccccc ccccc
%c cc cc ccc ccc cccc cccc cccc cccc ccccc ccccc ccccc ccccc
%f  1.2500000  1.025000000  0.00000000000  0.000000000000000
%f  0.0000000  0.000000000  0.00000000000  0.000000000000000
%i    0    0    0    0      0      0      0      0         0
%i    0    0    0    0      0      0      0      0         0
/* INFORMATION & ANALYSIS CENTER (IAC)            FINAL DATA
/* S/V CLOCKS ARE ALIGNED TO GNSS TIME                      
/* G:C1WC2W R:C1PC2P E:C1XC5X C:C2IC6I J:C1CC2S             
/* PCV:IGS14_2218 OL/AL:FES2004  NONE     YN ORB:CoN CLK:CoN
*  2022 09 28 22  0  0.00000000
PC06  -7825.513336  23356.771570 -34214.659579    911.027085
PC07 -17439.139241  36219.713109  12499.081303   -204.776347
PC08  -2028.815826  37271.209066  19786.144974    482.757368
PC09   2606.569408  25832.115095 -32762.823409   -849.928478
PC10 -10367.215484  36228.936818  18704.482219     90.812300
PC11  -7070.517902  14010.843022  23138.330725   -381.865392
PC12 -23488.680687   4713.650558  14329.280988   -501.672611
PC13   3291.724151  40280.596397  12665.009059     92.998929
PC14 -12342.628661  23475.061233  -8584.556573    684.191561
PC16 -12340.894581  21103.669772 -34188.555795    134.133361
PC19   4167.486435 -22167.101967  16456.619795   -758.403338
PC20  17607.252537 -21640.766147   1091.952744    831.906773
PC21 -21391.094883   7955.002281  16052.699604   -493.195128
PC22 -12269.383209  -9934.313856  23000.831961   -827.968119
PC23  15270.969161  20814.721325  10615.154961   -305.279237
PC24  -9839.329067  16374.678462 -20355.568594   -363.950808
PC25   5330.257926  26725.173078  -6069.581632      2.155137
PC26 -17253.689439  -1314.739167 -21896.248248    -14.088722
PC27  27121.781832    950.415872  -6505.942928     27.969436
PC28  22947.882384  12031.843161  10379.839688     18.304537
PC29  -5054.722690 -16356.117483 -22042.292302     19.780574
PC30  16276.779656 -11201.164770 -19706.651243      0.194664
PC32  21324.263472  -8051.356162 -16098.355026   -782.354600
PC33  -4107.178296  22226.395762 -16363.136057   -779.783883
PC34 -15240.575379  11749.650263  20204.713018      5.128775
PC35 -22435.396540 -11931.884388 -11571.967675     18.005927
PC36  -4248.990632 -26768.714908   6653.005214   -432.886919
PC37  17477.804080   3211.244053  21540.887294   -341.764089
PC38  -7813.296449  33051.493775  25117.425627     27.464276
PC39 -17130.360335  19665.818847 -33153.401305     -0.527932
PC40 -24977.429047  32085.650777  10738.656014     -5.029706
PC41  11920.555716  10380.011226 -22954.683049   -122.514430
PC42 -18186.897701  21153.759660    109.699534   -378.925469
PC43   4112.418871  16457.479145  22147.452812     16.763400
PC44 -27209.884295   -105.267560   6243.690077     64.915636
PC45 -15334.195268 -20564.597487 -10949.408617     -3.418378
PC46   8663.376706 -17800.508228  19658.524319     -2.896954
PE01  12516.635507  14904.336874  22312.060405   -536.856183
PE02 -12603.629325 -14699.690197 -22377.438282    327.541928
PE03 -21888.119622  -6527.315251  18812.985217   -604.514018
PE04  28468.676956  -7579.245963  -2878.207783  -1125.425537
PE05  -2288.729876 -17112.464866  24039.873961   -139.555404
PE07 -18316.960410  17579.458311 -15213.747316   -709.074313
PE08 -28429.014038   7725.227398   2815.772562   -606.556314
PE09  18437.101415 -17508.202033  15163.280301   -674.871060
PE10  16123.065676  -6492.567661 -23971.564169   -480.044693
PE11   7000.265712 -14996.282611 -24553.111077   2022.959446
PE12  22072.298755   2340.330017 -19585.318939   -194.247488
PE13  -7691.464470  14373.079404  24708.107760    430.630024
PE14  27534.132801 -12786.522370  -9177.996929     12.842983
PE15 -22140.241434  -2542.342360  19481.135703    717.427546
PE18 -23866.961515   5416.381430   1734.193934   -922.308955
PE19  19814.546921   8260.867690 -20378.098529  -4406.253852
PE21   1389.471794  27840.440294   9970.306210   -760.415094
PE24  12019.294787 -25182.688890   9838.354749   -862.437480
PE25  -1167.433536 -27940.778176  -9680.237332   -588.857483
PE26  11788.383367  22884.091712  14625.579213  -1666.727586
PE27 -11372.026850  25832.554673  -8926.081103   -403.011683
PE30 -17433.596789   7644.472737 -22672.236813   -874.158789
PE31  17329.213157  -8618.568329  22409.845380   -504.577898
PE33  23439.638473  17863.740979  -2785.617368   -454.184001
PE34 -23515.021899 -17715.427292   2956.278317     -6.838791
PE36 -11122.180484 -22697.919183 -15400.170991   -438.251396
PG01 -21019.533107 -12498.690235  10465.720776    276.094052
PG02  21213.177314  15125.975356  -4092.348170   -644.391292
PG03 -13607.901844  -6188.918829  21831.258611   -357.931055
PG04 -24434.581502  -2245.486134  10295.063398   -111.755798
PG05   8762.829384  17412.735636 -18160.645447    -98.404610
PG06    695.824104  18772.666908  18804.363598    475.591216
PG07 -17444.588587   1988.086250 -19648.554292    303.640166
PG08 -18309.993941  -7896.672468 -17757.718493    -86.552957
PG09 -25573.769333   7238.693689   -593.414176   -290.165589
PG10  11388.260689 -22771.521336  -6824.303033     -5.262434
PG11   9942.623655  22430.005838  10218.962262    -20.424229
PG12  13055.934000   7582.855003  21593.468238   -285.670956
PG13   9914.736003  13390.299806 -20895.225888    396.293090
PG14 -13370.942959  21275.277906  -8422.117110    -99.922064
PG15  19244.918087   6601.514196 -17660.439140    -25.215149
PG16  -2102.601008 -22091.123870 -14519.273768   -525.263362
PG17 -18623.679374  13067.285779  14194.338567    663.707657
PG18  16208.904690  -3332.284297 -20812.710137     32.814427
PG19  -8856.483192  14764.405746  19912.085521    216.859926
PG20   1500.134668  25853.648741  -6412.426504    482.638475
PG21 -21294.629563 -16419.247865   2618.361317    158.816226
PG22   5408.631258 -15738.432894  21083.975295    336.190211
PG23  15088.656672 -15067.005535 -15761.997421     -0.555584
PG24  22092.599712  13849.305552   5791.883139    119.182921
PG25  16226.671581  -5869.219353  19825.351051    376.945135
PG26   2477.640906 -25892.472971  -4518.751079    230.440415
PG27  -6247.601568 -13941.976500 -21968.404763    205.858516
PG28  -8947.236623  25135.737023   1326.598905    334.674699
PG29  26278.014719  -4150.562231    287.688313   -555.426288
PG30  -9104.958641  13063.045229 -21144.067447   -537.176719
PG31   -861.030205 -19474.922633  17679.876776   -194.984325
PG32  15304.683376 -15147.060203  15567.640187   -247.242371
PJ02 -22814.409164  31179.734301 -12339.693184     -6.022681
PJ03 -28079.273444  22312.799925  27217.913521     -2.169009
PJ04 -31927.525947  27623.446194   8282.339550    111.539163
PR01   6505.210254 -16801.375292  18054.968899     15.454279
PR02 -10474.168023  -5329.536486  22682.941264    -22.810074
PR03 -20298.659071   8285.976374  13127.452847     64.548499
PR04 -18750.918511  16940.104461  -3519.705531    159.264415
PR05  -7023.076351  16379.151972 -18258.734391    100.392607
PR07  20427.282741  -8794.268318 -12411.896936     41.718972
PR08  18544.286252 -17091.158770   3764.613866    -67.405605
PR09  10541.253076  18013.862441  14631.142037     79.212324
PR11   6187.558702 -16313.531090  18628.370580     26.086081
PR12  -2874.512982 -25228.197714   2381.071808     21.642466
PR13  -9853.393329 -19295.992397 -13471.670514    -27.277820
PR14 -11338.158318   -775.081742 -22820.674164     24.220849
PR15  -6016.502973  17094.066834 -17925.566887     93.482472
PR17 -23194.467014  -4533.988874   9542.885167    564.745149
PR18 -13026.321367   5050.450537  21366.615530     44.626839
PR19   2385.645267  11903.088825  22436.068601   -205.373282
PR20  20014.531509  13090.269298   8838.309257    -79.231324
PR21  22716.947753   3827.410003 -10993.420782   -337.407447
PR24 -20690.439968 -12502.961320  -8083.297001    117.268445
PR25  12707.141033  -5311.116879 -21443.057407 999999.999999
EOF
